[{"OBJECT_NAME":"JILIN-1 GAOFEN 03D47","OBJECT_ID":"2022-167L","EPOCH":"2026-03-09T22:56:46.924224","MEAN_MOTION":15.31686941,"ECCENTRICITY":0.00089304,"INCLINATION":97.6835,"RA_OF_ASC_NODE":234.6581,"ARG_OF_PERICENTER":110.4031,"MEAN_ANOMALY":249.8169,"EPHEMERIS_TYPE":0,"CLASSIFICATION_TYPE":"U","NORAD_CAT_ID":54692,"ELEMENT_SET_NO":999,"REV_AT_EPOCH":18014,"BSTAR":0.00047294748,"MEAN_MOTION_DOT":0.00014417,"MEAN_MOTION_DDOT":0},{"OBJECT_NAME":"STARLINK-34400","OBJECT_ID":"2025-130AB","EPOCH":"2026-03-09T08:09:38.329344","MEAN_MOTION":15.30180001,"ECCENTRICITY":0.00017595,"INCLINATION":53.1599,"RA_OF_ASC_NODE":92.7018,"ARG_OF_PERICENTER":96.8048,"MEAN_ANOMALY":263.3153,"EPHEMERIS_TYPE":0,"CLASSIFICATION_TYPE":"U","NORAD_CAT_ID":64463,"ELEMENT_SET_NO":999,"REV_AT_EPOCH":4061,"BSTAR":0.00048788452,"MEAN_MOTION_DOT":0.00014109,"MEAN_MOTION_DDOT":0}]
